[{"OBJECT_NAME":"STARLINK-30372","OBJECT_ID":"2023-134U","EPOCH":"2026-01-11T09:07:43.194720","MEAN_MOTION":15.27601976,"ECCENTRICITY":3.445e-5,"INCLINATION":43.0005,"RA_OF_ASC_NODE":42.0306,"ARG_OF_PERICENTER":202.9825,"MEAN_ANOMALY":157.1012,"EPHEMERIS_TYPE":0,"CLASSIFICATION_TYPE":"U","NORAD_CAT_ID":57789,"ELEMENT_SET_NO":999,"REV_AT_EPOCH":13210,"BSTAR":0.00017893095,"MEAN_MOTION_DOT":4.668e-5,"MEAN_MOTION_DDOT":0},{"OBJECT_NAME":"STARLINK-30367","OBJECT_ID":"2023-134W","EPOCH":"2026-01-11T15:31:28.213248","MEAN_MOTION":15.02539372,"ECCENTRICITY":0.00014709,"INCLINATION":43.0027,"RA_OF_ASC_NODE":147.1909,"ARG_OF_PERICENTER":272.5127,"MEAN_ANOMALY":87.5547,"EPHEMERIS_TYPE":0,"CLASSIFICATION_TYPE":"U","NORAD_CAT_ID":57791,"ELEMENT_SET_NO":999,"REV_AT_EPOCH":13089,"BSTAR":9.614406e-5,"MEAN_MOTION_DOT":1.095e-5,"MEAN_MOTION_DDOT":0},{"OBJECT_NAME":"STARLINK-30374","OBJECT_ID":"2023-138B","EPOCH":"2026-01-11T12:42:51.791904","MEAN_MOTION":15.02540916,"ECCENTRICITY":5.9e-5,"INCLINATION":43.0044,"RA_OF_ASC_NODE":187.0094,"ARG_OF_PERICENTER":254.7511,"MEAN_ANOMALY":105.3267,"EPHEMERIS_TYPE":0,"CLASSIFICATION_TYPE":"U","NORAD_CAT_ID":57809,"ELEMENT_SET_NO":999,"REV_AT_EPOCH":13011,"BSTAR":-0.00013033305,"MEAN_MOTION_DOT":-1.964e-5,"MEAN_MOTION_DDOT":0},{"OBJECT_NAME":"STARLINK-30394","OBJECT_ID":"2023-138C","EPOCH":"2026-01-11T12:38:05.294688","MEAN_MOTION":15.02545548,"ECCENTRICITY":0.00011828,"INCLINATION":43.0016,"RA_OF_ASC_NODE":186.9854,"ARG_OF_PERICENTER":254.1698,"MEAN_ANOMALY":105.9014,"EPHEMERIS_TYPE":0,"CLASSIFICATION_TYPE":"U","NORAD_CAT_ID":57810,"ELEMENT_SET_NO":999,"REV_AT_EPOCH":13001,"BSTAR":0.00041471606,"MEAN_MOTION_DOT":5.404e-5,"MEAN_MOTION_DDOT":0},{"OBJECT_NAME":"STARLINK-30379","OBJECT_ID":"2023-138D","EPOCH":"2026-01-11T12:33:17.164512","MEAN_MOTION":15.02545462,"ECCENTRICITY":0.00010668,"INCLINATION":43.0022,"RA_OF_ASC_NODE":186.9598,"ARG_OF_PERICENTER":243.9258,"MEAN_ANOMALY":116.1475,"EPHEMERIS_TYPE":0,"CLASSIFICATION_TYPE":"U","NORAD_CAT_ID":57811,"ELEMENT_SET_NO":999,"REV_AT_EPOCH":13011,"BSTAR":4.181282e-6,"MEAN_MOTION_DOT":-1.47e-6,"MEAN_MOTION_DDOT":0},{"OBJECT_NAME":"STARLINK-30395","OBJECT_ID":"2023-138E","EPOCH":"2026-01-11T12:28:29.728992","MEAN_MOTION":15.02516911,"ECCENTRICITY":0.00010539,"INCLINATION":43.0019,"RA_OF_ASC_NODE":186.9362,"ARG_OF_PERICENTER":262.3395,"MEAN_ANOMALY":97.7328,"EPHEMERIS_TYPE":0,"CLASSIFICATION_TYPE":"U","NORAD_CAT_ID":57812,"ELEMENT_SET_NO":999,"REV_AT_EPOCH":13011,"BSTAR":4.907132e-5,"MEAN_MOTION_DOT":4.59e-6,"MEAN_MOTION_DDOT":0},{"OBJECT_NAME":"STARLINK-30403","OBJECT_ID":"2023-138F","EPOCH":"2026-01-11T12:23:41.759520","MEAN_MOTION":15.02542069,"ECCENTRICITY":0.00012052,"INCLINATION":43.0022,"RA_OF_ASC_NODE":186.9099,"ARG_OF_PERICENTER":264.2955,"MEAN_ANOMALY":95.7749,"EPHEMERIS_TYPE":0,"CLASSIFICATION_TYPE":"U","NORAD_CAT_ID":57813,"ELEMENT_SET_NO":999,"REV_AT_EPOCH":13001,"BSTAR":7.7056472e-5,"MEAN_MOTION_DOT":8.38e-6,"MEAN_MOTION_DDOT":0},{"OBJECT_NAME":"STARLINK-30413","OBJECT_ID":"2023-138G","EPOCH":"2026-01-11T13:30:39.277440","MEAN_MOTION":15.02534323,"ECCENTRICITY":9.627e-5,"INCLINATION":43.0022,"RA_OF_ASC_NODE":186.4063,"ARG_OF_PERICENTER":263.7112,"MEAN_ANOMALY":96.3621,"EPHEMERIS_TYPE":0,"CLASSIFICATION_TYPE":"U","NORAD_CAT_ID":57814,"ELEMENT_SET_NO":999,"REV_AT_EPOCH":13012,"BSTAR":4.9605174e-5,"MEAN_MOTION_DOT":4.67e-6,"MEAN_MOTION_DDOT":0},{"OBJECT_NAME":"STARLINK-30398","OBJECT_ID":"2023-138H","EPOCH":"2026-01-11T12:18:54.048384","MEAN_MOTION":15.02534085,"ECCENTRICITY":8.625e-5,"INCLINATION":43.0011,"RA_OF_ASC_NODE":186.8844,"ARG_OF_PERICENTER":260.0167,"MEAN_ANOMALY":100.0578,"EPHEMERIS_TYPE":0,"CLASSIFICATION_TYPE":"U","NORAD_CAT_ID":57815,"ELEMENT_SET_NO":999,"REV_AT_EPOCH":13001,"BSTAR":4.65235e-5,"MEAN_MOTION_DOT":4.25e-6,"MEAN_MOTION_DDOT":0},{"OBJECT_NAME":"STARLINK-30386","OBJECT_ID":"2023-138J","EPOCH":"2026-01-11T12:14:08.142144","MEAN_MOTION":15.02540094,"ECCENTRICITY":7.723e-5,"INCLINATION":43.002,"RA_OF_ASC_NODE":186.8577,"ARG_OF_PERICENTER":241.8776,"MEAN_ANOMALY":118.1989,"EPHEMERIS_TYPE":0,"CLASSIFICATION_TYPE":"U","NORAD_CAT_ID":57816,"ELEMENT_SET_NO":999,"REV_AT_EPOCH":12993,"BSTAR":-0.00037855481,"MEAN_MOTION_DOT":-5.314e-5,"MEAN_MOTION_DDOT":0},{"OBJECT_NAME":"STARLINK-30391","OBJECT_ID":"2023-138K","EPOCH":"2026-01-11T12:09:18.835200","MEAN_MOTION":15.02532292,"ECCENTRICITY":0.00012665,"INCLINATION":43.0027,"RA_OF_ASC_NODE":186.8335,"ARG_OF_PERICENTER":271.6793,"MEAN_ANOMALY":88.3905,"EPHEMERIS_TYPE":0,"CLASSIFICATION_TYPE":"U","NORAD_CAT_ID":57817,"ELEMENT_SET_NO":999,"REV_AT_EPOCH":13011,"BSTAR":1.0836902e-5,"MEAN_MOTION_DOT":-5.7e-7,"MEAN_MOTION_DDOT":0},{"OBJECT_NAME":"STARLINK-30401","OBJECT_ID":"2023-138L","EPOCH":"2026-01-11T12:04:30.906336","MEAN_MOTION":15.0253397,"ECCENTRICITY":0.0001255,"INCLINATION":43.0021,"RA_OF_ASC_NODE":186.7987,"ARG_OF_PERICENTER":264.2443,"MEAN_ANOMALY":95.8256,"EPHEMERIS_TYPE":0,"CLASSIFICATION_TYPE":"U","NORAD_CAT_ID":57818,"ELEMENT_SET_NO":999,"REV_AT_EPOCH":13001,"BSTAR":3.3555607e-5,"MEAN_MOTION_DOT":2.5e-6,"MEAN_MOTION_DDOT":0},{"OBJECT_NAME":"STARLINK-30390","OBJECT_ID":"2023-138M","EPOCH":"2026-01-11T11:59:42.777024","MEAN_MOTION":15.02554892,"ECCENTRICITY":0.00012838,"INCLINATION":43.0028,"RA_OF_ASC_NODE":186.7859,"ARG_OF_PERICENTER":272.1353,"MEAN_ANOMALY":87.9342,"EPHEMERIS_TYPE":0,"CLASSIFICATION_TYPE":"U","NORAD_CAT_ID":57819,"ELEMENT_SET_NO":999,"REV_AT_EPOCH":13005,"BSTAR":-0.00044233976,"MEAN_MOTION_DOT":-6.177e-5,"MEAN_MOTION_DDOT":0},{"OBJECT_NAME":"STARLINK-30409","OBJECT_ID":"2023-138N","EPOCH":"2026-01-11T13:16:15.610944","MEAN_MOTION":15.02536247,"ECCENTRICITY":0.00015124,"INCLINATION":43.0024,"RA_OF_ASC_NODE":186.3042,"ARG_OF_PERICENTER":261.4021,"MEAN_ANOMALY":98.665,"EPHEMERIS_TYPE":0,"CLASSIFICATION_TYPE":"U","NORAD_CAT_ID":57820,"ELEMENT_SET_NO":999,"REV_AT_EPOCH":13006,"BSTAR":3.8019189e-5,"MEAN_MOTION_DOT":3.1e-6,"MEAN_MOTION_DDOT":0},{"OBJECT_NAME":"STARLINK-30415","OBJECT_ID":"2023-138P","EPOCH":"2026-01-11T11:46:55.846560","MEAN_MOTION":15.02535991,"ECCENTRICITY":0.00012417,"INCLINATION":43.0031,"RA_OF_ASC_NODE":186.7196,"ARG_OF_PERICENTER":263.4837,"MEAN_ANOMALY":96.5864,"EPHEMERIS_TYPE":0,"CLASSIFICATION_TYPE":"U","NORAD_CAT_ID":57821,"ELEMENT_SET_NO":999,"REV_AT_EPOCH":13011,"BSTAR":3.9145273e-5,"MEAN_MOTION_DOT":3.25e-6,"MEAN_MOTION_DDOT":0},{"OBJECT_NAME":"STARLINK-30407","OBJECT_ID":"2023-138R","EPOCH":"2026-01-11T14:06:47.950272","MEAN_MOTION":15.27585057,"ECCENTRICITY":5.323e-5,"INCLINATION":42.9956,"RA_OF_ASC_NODE":91.2617,"ARG_OF_PERICENTER":224.5977,"MEAN_ANOMALY":135.4831,"EPHEMERIS_TYPE":0,"CLASSIFICATION_TYPE":"U","NORAD_CAT_ID":57823,"ELEMENT_SET_NO":999,"REV_AT_EPOCH":13123,"BSTAR":0.00010600976,"MEAN_MOTION_DOT":2.657e-5,"MEAN_MOTION_DDOT":0}]
