STARLINK-30372          
1 57789U 23134U   26011.38036105  .00004668  00000+0  17893-3 0  9999
2 57789  43.0005  42.0306 0000344 202.9825 157.1012 15.27601976132102
STARLINK-30367          
1 57791U 23134W   26011.64685432  .00001095  00000+0  96144-4 0  9992
2 57791  43.0027 147.1909 0001470 272.5127  87.5547 15.02539372130890
STARLINK-30374          
1 57809U 23138B   26011.52976611 -.00001964  00000+0 -13033-3 0  9997
2 57809  43.0044 187.0094 0000590 254.7511 105.3267 15.02540916130117
STARLINK-30394          
1 57810U 23138C   26011.52645017  .00005404  00000+0  41472-3 0  9991
2 57810  43.0016 186.9854 0001182 254.1698 105.9014 15.02545548130019
STARLINK-30379          
1 57811U 23138D   26011.52311533 -.00000147  00000+0  41813-5 0  9996
2 57811  43.0022 186.9598 0001066 243.9258 116.1475 15.02545462130112
STARLINK-30395          
1 57812U 23138E   26011.51978853  .00000459  00000+0  49071-4 0  9998
2 57812  43.0019 186.9362 0001053 262.3395  97.7328 15.02516911130119
STARLINK-30403          
1 57813U 23138F   26011.51645555  .00000838  00000+0  77056-4 0  9994
2 57813  43.0022 186.9099 0001205 264.2955  95.7749 15.02542069130010
STARLINK-30413          
1 57814U 23138G   26011.56295460  .00000467  00000+0  49605-4 0  9993
2 57814  43.0022 186.4063 0000962 263.7112  96.3621 15.02534323130127
STARLINK-30398          
1 57815U 23138H   26011.51312556  .00000425  00000+0  46524-4 0  9996
2 57815  43.0011 186.8844 0000862 260.0167 100.0578 15.02534085130013
STARLINK-30386          
1 57816U 23138J   26011.50981646 -.00005314  00000+0 -37855-3 0  9998
2 57816  43.0020 186.8577 0000772 241.8776 118.1989 15.02540094129932
STARLINK-30391          
1 57817U 23138K   26011.50646800 -.00000057  00000+0  10837-4 0  9999
2 57817  43.0027 186.8335 0001266 271.6793  88.3905 15.02532292130110
STARLINK-30401          
1 57818U 23138L   26011.50313549  .00000250  00000+0  33556-4 0  9998
2 57818  43.0021 186.7987 0001255 264.2443  95.8256 15.02533970130010
STARLINK-30390          
1 57819U 23138M   26011.49980066 -.00006177  00000+0 -44234-3 0  9991
2 57819  43.0028 186.7859 0001283 272.1353  87.9342 15.02554892130053
STARLINK-30409          
1 57820U 23138N   26011.55295846  .00000310  00000+0  38019-4 0  9991
2 57820  43.0024 186.3042 0001512 261.4021  98.6650 15.02536247130065
STARLINK-30415          
1 57821U 23138P   26011.49092415  .00000325  00000+0  39145-4 0  9999
2 57821  43.0031 186.7196 0001241 263.4837  96.5864 15.02535991130119
STARLINK-30407          
1 57823U 23138R   26011.58805498  .00002657  00000+0  10601-3 0  9999
2 57823  42.9956  91.2617 0000532 224.5977 135.4831 15.27585057131234
